STARLINK-11704 [DTC]    
1 64245U 25119N   26196.91328359  .00141791  00000+0  10848-2 0  9998
2 64245  42.9986 155.9813 0001477 223.2893 136.7859 15.70949664 65417
STARLINK-34203          
1 64246U 25119P   26196.34537952  .00008462  00000+0  31671-3 0  9992
2 64246  43.0045 306.0356 0001913 284.0118  76.0521 15.27578252 63702
STARLINK-33865          
1 64247U 25119Q   26196.32995953  .00009891  00000+0  36847-3 0  9997
2 64247  43.0019 305.9119 0002252 287.8932  72.1674 15.27581071 63665
STARLINK-34234          
1 64248U 25119R   26196.61720403  .00008189  00000+0  30679-3 0  9992
2 64248  43.0034 304.6246 0001291 264.7828  95.2877 15.27576927 63733
STARLINK-34256          
1 64249U 25119S   26196.33766526  .00003102  00000+0  12220-3 0  9990
2 64249  43.0006 305.9675 0001674 284.7307  75.3359 15.27579826 63692
STARLINK-34229          
1 64250U 25119T   26196.37364462  .00008165  00000+0  30581-3 0  9993
2 64250  43.0006 306.2448 0001326 239.0344 121.0377 15.27591672 63696
STARLINK-34224          
1 64251U 25119U   26196.33381446  .00008943  00000+0  33407-3 0  9995
2 64251  43.0032 305.9449 0002339 287.8093  72.2503 15.27582460 63693
STARLINK-34215          
1 64252U 25119V   26196.28641664  .00006862  00000+0  25871-3 0  9995
2 64252  43.0048 306.4506 0002426 285.7332  74.3252 15.27575022 63680
STARLINK-33893          
1 64253U 25119W   26196.36721780  .00010073  00000+0  37501-3 0  9995
2 64253  43.0022 306.1899 0001309 245.1812 114.8904 15.27586059 63694
STARLINK-34183          
1 64254U 25119X   26196.37749848  .00007818  00000+0  29332-3 0  9998
2 64254  42.9983 306.2678 0001316 234.2191 125.8538 15.27581438 63693
STARLINK-34211          
1 64255U 25119Y   26196.31596855  .00008921  00000+0  33332-3 0  9992
2 64255  43.0020 306.6697 0002740 274.6803  85.3736 15.27577604 63682
STARLINK-34329          
1 64256U 25120A   26196.39873451  .00008664  00000+0  26729-3 0  9999
2 64256  53.1565 239.6236 0001146  78.6431 281.4701 15.34396840 63524
STARLINK-34352          
1 64257U 25120B   26197.11149625  .00009056  00000+0  27881-3 0  9996
2 64257  53.1593 239.7977 0001516  71.9821 288.1346 15.34402632 63536
STARLINK-34308          
1 64258U 25120C   26196.40505399  .00008988  00000+0  27703-3 0  9998
2 64258  53.1561 239.6603 0001113  77.5478 282.5649 15.34376906 63471
STARLINK-34306          
1 64259U 25120D   26197.10682575  .00009485  00000+0  29144-3 0  9993
2 64259  53.1561 236.2166 0000807  79.8309 280.2784 15.34404267 63585
STARLINK-34281          
1 64260U 25120E   26197.12364255  .00011708  00000+0  35697-3 0  9990
2 64260  53.1567 236.3225 0001309  97.4097 262.7054 15.34411150 63582
STARLINK-34297          
1 64261U 25120F   26197.19088676  .00011284  00000+0  34463-3 0  9997
2 64261  53.1547 236.0315 0001263  97.7113 262.4033 15.34397240 63531
STARLINK-34325          
1 64262U 25120G   26196.39710528  .00005014  00000+0  15948-3 0  9998
2 64262  53.1582 243.1565 0000840  86.0465 274.0633 15.34388741 63472
STARLINK-34276          
1 64263U 25120H   26197.15389854  .00006943  00000+0  23518-3 0  9992
2 64263  53.1563 239.3491 0001113  87.4488 272.6640 15.31713471 63595
STARLINK-34333          
1 64264U 25120J   26197.10471098  .00013547  00000+0  41132-3 0  9990
2 64264  53.1568 236.2061 0001156  59.6902 300.4215 15.34402297 63580
STARLINK-34240          
1 64265U 25120K   26197.10939166  .00011030  00000+0  33705-3 0  9998
2 64265  53.1590 239.7868 0001540  69.9584 290.1584 15.34406337 63589
STARLINK-34315          
1 64266U 25120L   26197.12832963  .00012570  00000+0  38250-3 0  9998
2 64266  53.1580 239.8993 0001155  72.6717 287.4412 15.34402040 63520
STARLINK-34321          
1 64267U 25120M   26197.11102104  .00010300  00000+0  31557-3 0  9997
2 64267  53.1570 236.2424 0001244  87.0166 273.0979 15.34397570 63639
STARLINK-34319          
1 64268U 25120N   26197.12785250  .00009123  00000+0  28082-3 0  9998
2 64268  53.1557 236.3429 0001336  79.3170 280.7983 15.34401169 63621
STARLINK-34298          
1 64269U 25120P   26196.39663223  .00008053  00000+0  24928-3 0  9998
2 64269  53.1566 239.6089 0001087  77.4460 282.6664 15.34391372 63423
STARLINK-34219          
1 64270U 25120Q   26197.14305618  .00009889  00000+0  30340-3 0  9998
2 64270  53.1575 239.9874 0001278 102.0428 258.0718 15.34404014 63583
STARLINK-34342          
1 64271U 25120R   26196.45382585  .00006886  00000+0  21480-3 0  9999
2 64271  53.1582 242.8002 0001062  81.6559 278.4564 15.34393797 63430
STARLINK-34001          
1 64272U 25120S   26196.40131252  .00012313  00000+0  37501-3 0  9991
2 64272  53.1581 243.1848 0001097  84.0238 276.0890 15.34394913 63371
STARLINK-34334          
1 64273U 25120T   26197.16668980  .00000294  00000+0  19811-4 0  9999
2 64273  53.1592 239.4439 0000754  75.6152 276.0515 15.34402550  5858
STARLINK-34272          
1 64274U 25120U   26197.10729095  .00011971  00000+0  36497-3 0  9991
2 64274  53.1578 239.7702 0001473  74.4453 285.6713 15.34391392 63489
