OBJECT_NAME,OBJECT_ID,EPOCH,MEAN_MOTION,ECCENTRICITY,INCLINATION,RA_OF_ASC_NODE,ARG_OF_PERICENTER,MEAN_ANOMALY,EPHEMERIS_TYPE,CLASSIFICATION_TYPE,NORAD_CAT_ID,ELEMENT_SET_NO,REV_AT_EPOCH,BSTAR,MEAN_MOTION_DOT,MEAN_MOTION_DDOT
STARLINK-11704 [DTC],2025-119N,2026-07-15T21:55:07.702176,15.70949664,.0001477,42.9986,155.9813,223.2893,136.7859,0,U,64245,999,6541,.10848E-2,.141791E-2,0
STARLINK-34203,2025-119P,2026-07-15T08:17:20.790528,15.27578252,.00019138,43.0045,306.0356,284.0118,76.0521,0,U,64246,999,6370,.31670746E-3,.8462E-4,0
STARLINK-33865,2025-119Q,2026-07-15T07:55:08.503392,15.27581071,.00022522,43.0019,305.9119,287.8932,72.1674,0,U,64247,999,6366,.368467E-3,.9891E-4,0
STARLINK-34234,2025-119R,2026-07-15T14:48:46.428192,15.27576927,.00012914,43.0034,304.6246,264.7828,95.2877,0,U,64248,999,6373,.30679014E-3,.8189E-4,0
STARLINK-34256,2025-119S,2026-07-15T08:06:14.278464,15.27579826,.00016742,43.0006,305.9675,284.7307,75.3359,0,U,64249,999,6369,.12219992E-3,.3102E-4,0
STARLINK-34229,2025-119T,2026-07-15T08:58:02.895168,15.27591672,.00013261,43.0006,306.2448,239.0344,121.0377,0,U,64250,999,6369,.30580865E-3,.8165E-4,0
STARLINK-34224,2025-119U,2026-07-15T08:00:41.569344,15.27582460,.00023399,43.0032,305.9449,287.8093,72.2503,0,U,64251,999,6369,.33407256E-3,.8943E-4,0
STARLINK-34215,2025-119V,2026-07-15T06:52:26.397696,15.27575022,.0002426,43.0048,306.4506,285.7332,74.3252,0,U,64252,999,6368,.25871037E-3,.6862E-4,0
STARLINK-33893,2025-119W,2026-07-15T08:48:47.617920,15.27586059,.00013094,43.0022,306.1899,245.1812,114.8904,0,U,64253,999,6369,.37500602E-3,.10073E-3,0
STARLINK-34183,2025-119X,2026-07-15T09:03:35.868672,15.27581438,.00013163,42.9983,306.2678,234.2191,125.8538,0,U,64254,999,6369,.29331549E-3,.7818E-4,0
STARLINK-34211,2025-119Y,2026-07-15T07:34:59.682720,15.27577604,.00027404,43.0020,306.6697,274.6803,85.3736,0,U,64255,999,6368,.33332226E-3,.8921E-4,0
STARLINK-34329,2025-120A,2026-07-15T09:34:10.661664,15.34396840,.00011467,53.1565,239.6236,78.6431,281.4701,0,U,64256,999,6352,.26728563E-3,.8664E-4,0
STARLINK-34352,2025-120B,2026-07-16T02:40:33.276000,15.34402632,.0001516,53.1593,239.7977,71.9821,288.1346,0,U,64257,999,6353,.27881E-3,.9056E-4,0
STARLINK-34308,2025-120C,2026-07-15T09:43:16.664736,15.34376906,.00011137,53.1561,239.6603,77.5478,282.5649,0,U,64258,999,6347,.2770312E-3,.8988E-4,0
STARLINK-34306,2025-120D,2026-07-16T02:33:49.744800,15.34404267,.0000807,53.1561,236.2166,79.8309,280.2784,0,U,64259,999,6358,.29144E-3,.9485E-4,0
STARLINK-34281,2025-120E,2026-07-16T02:58:02.716320,15.34411150,.0001309,53.1567,236.3225,97.4097,262.7054,0,U,64260,999,6358,.35697E-3,.11708E-3,0
STARLINK-34297,2025-120F,2026-07-16T04:34:52.616064,15.34397240,.0001263,53.1547,236.0315,97.7113,262.4033,0,U,64261,999,6353,.34463E-3,.11284E-3,0
STARLINK-34325,2025-120G,2026-07-15T09:31:49.896192,15.34388741,.00008404,53.1582,243.1565,86.0465,274.0633,0,U,64262,999,6347,.15947992E-3,.5014E-4,0
STARLINK-34276,2025-120H,2026-07-16T03:41:36.833856,15.31713471,.0001113,53.1563,239.3491,87.4488,272.6640,0,U,64263,999,6359,.23518E-3,.6943E-4,0
STARLINK-34333,2025-120J,2026-07-16T02:30:47.028672,15.34402297,.0001156,53.1568,236.2061,59.6902,300.4215,0,U,64264,999,6358,.41132E-3,.13547E-3,0
STARLINK-34240,2025-120K,2026-07-16T02:37:31.439424,15.34406337,.000154,53.1590,239.7868,69.9584,290.1584,0,U,64265,999,6358,.33705E-3,.1103E-3,0
STARLINK-34315,2025-120L,2026-07-16T03:04:47.680032,15.34402040,.0001155,53.1580,239.8993,72.6717,287.4412,0,U,64266,999,6352,.3825E-3,.1257E-3,0
STARLINK-34321,2025-120M,2026-07-16T02:39:52.217856,15.34397570,.0001244,53.1570,236.2424,87.0166,273.0979,0,U,64267,999,6363,.31557E-3,.103E-3,0
STARLINK-34319,2025-120N,2026-07-16T03:04:06.456000,15.34401169,.0001336,53.1557,236.3429,79.3170,280.7983,0,U,64268,999,6362,.28082E-3,.9123E-4,0
STARLINK-34298,2025-120P,2026-07-15T09:31:09.024672,15.34391372,.00010874,53.1566,239.6089,77.4460,282.6664,0,U,64269,999,6342,.24928358E-3,.8053E-4,0
STARLINK-34219,2025-120Q,2026-07-16T03:26:00.053952,15.34404014,.0001278,53.1575,239.9874,102.0428,258.0718,0,U,64270,999,6358,.3034E-3,.9889E-4,0
STARLINK-34342,2025-120R,2026-07-15T10:53:30.553440,15.34393797,.00010624,53.1582,242.8002,81.6559,278.4564,0,U,64271,999,6343,.21479593E-3,.6886E-4,0
STARLINK-34001,2025-120S,2026-07-15T09:37:53.401728,15.34394913,.00010978,53.1581,243.1848,84.0238,276.0890,0,U,64272,999,6337,.3750119E-3,.12313E-3,0
STARLINK-34334,2025-120T,2026-07-16T04:00:01.998720,15.34402550,.0000754,53.1592,239.4439,75.6152,276.0515,0,U,64273,999,585,.19811E-4,.294E-5,0
STARLINK-34272,2025-120U,2026-07-16T02:34:29.938080,15.34391392,.0001473,53.1578,239.7702,74.4453,285.6713,0,U,64274,999,6348,.36497E-3,.11971E-3,0
